#dP2024  4 27 18  0  0.00000000      96 __u+U IGS20 EXT  IAC
## 2311 583200.00000000   900.00000000 60427 0.7500000000000
+  118   C06C07C08C09C10C11C12C13C14C16C19C20C21C22C23C24C25
+        C26C27C28C29C30C32C33C34C35C36C37C38C39C40C41C42C43
+        C44C45C46E02E03E04E05E07E08E09E10E11E12E13E14E15E18
+        E19E21E24E25E26E27E30E31E33E34E36G02G03G04G05G06G07
+        G08G09G10G11G12G13G14G15G16G17G18G19G20G21G22G23G24
+        G25G26G27G28G29G30G31G32J02J03R01R02R03R04R05R07R08
+        R09R11R12R13R14R15R16R17R18R19R20R21R22R24R25R26  0
++        10  9  9 11  9 10  9  8 10 10  9  9  7  9 11  8  8
++         9  9 10  8  8  9  9  8  8  9 10  9  9 10 10  8  7
++         8  7  8  7  6  7  6  7  8  7  8  7 10  9  6  7  7
++         6  7  7  6  8  7  8  7  7  7  7  8  6  7  7  7  7
++         7  6  7  7  7  7  8  7  8  6  7  7  7  6  7  7  7
++         8  8  6  8  6  6  7  6  9  9  9  8  8  7  7  7  8
++         9  6 10  9  9  9  7  7  8  8  8  8  7  7  8  7  0
%c M  cc GPS ccc cccc cccc cccc cccc ccccc ccccc ccccc ccccc
%c cc cc ccc ccc cccc cccc cccc cccc ccccc ccccc ccccc ccccc
%f  0.0000000  0.000000000  0.00000000000  0.000000000000000
%f  0.0000000  0.000000000  0.00000000000  0.000000000000000
%i    0    0    0    0      0      0      0      0         0
%i    0    0    0    0      0      0      0      0         0
/* IAC                                ULTRA-RAPID PREDICTION
/* S/V CLOCKS ARE ALIGNED TO GNSS TIME                      
/* G:C1WC2W R:C1PC2P E:C1XC5X C:C2IC6I J:C1CC2S             
/* PCV:IGS20_2290 OL/AL:FES2004  NONE     YN ORB:CoN CLK:CoN
*  2024 04 28  8 30  0.00000000
PC06  -9172.525941  23489.826199 -33729.856611    380.469930
PC07 -14905.625699  38980.212254   5202.046930   -779.471748
PC08    484.823343  33046.330436  26298.432178    -64.733715
PC09  -2484.744272  24115.540752 -34012.224768   -824.749846
PC10  -7605.015294  39298.348083  12646.894782     69.745459
PC11 -16728.030118  -9761.249253 -20026.632808    534.864343
PC12   4148.349079 -16321.464980 -22219.745458   -238.340507
PC13   5802.521618  36579.361143  20559.685608    433.274899
PC14  -9250.516527 -17509.028909  19705.671042    750.986642
PC16 -15117.107556  21469.599988 -32767.569122   -486.538129
PC19  13920.030905   7738.989951 -22883.713634   -913.414692
PC20   4153.046273  23304.489141 -14732.269547   -406.763578
PC21   9131.049144 -26194.072787  -3193.539056   -964.485432
PC22  16320.833723 -13224.962941 -18387.420332    -23.374539
PC23 -19341.285185   1286.466955 -20070.444183   -776.757027
PC24 -12397.780502 -22732.714352  10365.086224    932.890395
PC25 -22799.335696 -14437.135675  -7079.508845    386.094549
PC26   4219.517872 -17269.694896  21485.620078   -283.578825
PC27 -13560.669547  16576.183811  17873.006342    305.269923
PC28 -25615.644504  10105.388413   4532.154202    233.682579
PC29  23605.933712   3382.897505  14481.990798    274.158901
PC30   6310.254811  14836.381096  22763.457678    -65.081864
PC32  -8996.557224  26193.850091   3334.090545   -611.221756
PC33 -13959.088434  -7823.149030  22871.940292   -968.767278
PC34  -8140.955861 -14224.804355 -22604.803262    421.930372
PC35  25294.495832 -10936.523424  -4284.530032    376.294066
PC36  22450.591335  15064.243253   6952.967829     65.182733
PC37  -4799.517822  17051.862620 -21557.747681   -965.922680
PC38  -5807.217655  29176.761260  29980.807931    151.774828
PC39 -19619.368825  20990.837078 -30867.614978     -8.147855
PC40 -22018.152505  35603.549689   3544.010636    -67.574140
PC41 -16430.606016  12322.091436  18939.492393   -934.964121
PC42  -3121.770293 -24302.122156  13439.464597   -442.674571
PC43 -23089.870108  -4154.196882 -15143.629847     69.657630
PC44  12978.975058 -17199.057090 -17735.782055    457.103399
PC45  19315.323129  -1072.019534  20117.936995    -82.533094
PC46  12993.113560  22716.768445  -9746.711743   -143.688978
PE02  15123.494011  -8621.680632  23930.881790    123.057495
PE03  24578.332463 -14617.827864  -7670.076481   -110.197455
PE04 -14484.278286  23265.548493 -11163.194303   -384.141969
PE05  20053.428194   2435.285311 -21627.228667   4742.697205
PE07  -3405.429208 -18414.640095  22938.281794   -117.060857
PE08  15163.584610 -23155.784451  10518.917958   -262.085428
PE09   3231.352570  18350.543745 -22986.786265   -423.284032
PE10   4055.234726  17349.598159  23626.445493   -620.594137
PE11  15246.811648  17597.807445  18249.716743   2965.681677
PE12  -6648.022515  14682.067161  24820.536071  -1014.190631
PE13 -14703.708867 -17615.882139 -18707.942020    -21.261986
PE14  12609.260446  10883.112925  19400.711728     19.712406
PE15   7189.497693 -14401.526513 -24838.917951    -99.696132
PE18  -5277.839015 -20428.909683 -22600.386624     49.409817
PE19 -24823.915700  12966.079752   9593.090756   -161.895776
PE21 -17006.743093 -12901.704541 -20510.218921   -591.611281
PE24   8732.510042  27913.025011   4605.250152   -732.292304
PE25  16936.855657  13332.220616  20289.082025      3.861057
PE26 -27784.111349 -10153.690418  -1163.105909    438.715562
PE27  -9008.449152 -27757.934149  -4931.871483   -335.658995
PE30   4398.859716 -25987.899926  13447.695958   -244.515987
PE31  -4199.945345  26076.311111 -13361.538446    -22.021536
PE33 -24838.472526   2420.272281  15917.912726     11.001061
PE34  24535.108692  -2842.832871 -16322.041899   -108.183134
PE36  27616.259946  10484.981002   1759.818113   -219.566047
PG02 -17821.731269 -13618.408978 -13961.270572   -445.710887
PG03 -12297.972257 -20842.579369  10939.113746    334.917640
PG04 -10518.057689 -10917.669414  21829.910779    348.945730
PG05   5384.788475  25785.219147   2810.100242   -170.752137
PG06 -17290.877638   7487.768262  18826.873433    300.359318
PG07 -25982.646824  -5674.182872  -2914.542117   -117.122746
PG08  -2052.225377 -17719.453985 -19649.299587    148.170392
PG09 -19510.365141   1579.052707  17898.463706    176.490752
PG10  12008.564737 -10240.189412 -21095.014937    -14.682982
PG11  -4247.611217  14512.544537  21858.846153   -648.388951
PG12  10342.831032  22473.917356   9453.798009   -500.568408
PG13  -8116.056811  19371.813058 -16320.210474    646.297867
PG14 -14471.291224   6073.650392 -21381.328578    387.392376
PG15   4435.672434  17825.563739 -19613.884134    153.197073
PG16    495.423770 -25549.913396   5981.895118   -305.578451
PG17 -22423.881662  12160.252801  -7267.089618    709.850470
PG18  25776.059451   4979.238670  -4651.852742   -602.003533
PG19 -20478.238633  16530.512328   1136.892153    474.456182
PG20   -798.759445  22814.250824  13765.313757    378.551493
PG21 -13493.034009 -15063.176211 -17270.008248    124.774690
PG22 -11020.387340  14968.151061 -18662.001503     -5.950699
PG23  15633.470529   3273.220730 -21233.438643    211.926517
PG24  15628.735091  15130.338147 -15927.411247   -464.256702
PG25  15433.784761  14278.878538  16041.734863    494.691858
PG26   7165.257626 -18862.171451  16934.561818    160.603406
PG27   9257.663208 -21234.669583 -12883.514640    -21.195283
PG28  19270.278821  -7044.835421  16850.572596   -221.344911
PG29  18178.834087   2205.582485  19223.627825   -600.396856
PG30 -23011.482226   3041.489569 -13005.735551   -398.632101
PG31   9950.586240 -12467.821616  21079.190131   -227.948621
PG32  21056.370338 -15008.936617  -5368.256823   -618.414722
PJ02 -20247.818197  29850.286881 -17320.221666     -4.613027
PJ03 -29679.938236  23408.789722  23820.535325      0.053915
PR01    476.905731  19095.890138 -16889.087140     83.753038
PR02   9938.268504   4146.285703 -23071.922110    -22.817419
PR03  14555.557609 -13351.609957 -16055.640096     99.110813
PR04  11208.215521 -22902.971623   -467.193880    233.988172
PR05   1859.763055 -20254.558729  15398.476052    130.659725
PR07 -14636.672590  14076.614491  15512.877550     81.201117
PR08 -10994.372698  23032.705716    374.297384    -75.245274
PR09 -17788.724622 -14605.486327 -11068.069956    183.524209
PR11  -2153.651069  14152.598156 -21097.306787     26.532928
PR12  11603.375630  21765.728475  -6503.592612     39.505524
PR13  17268.946199  16546.600175   8858.354039    -46.833526
PR14  12967.553346   -246.077952  21972.104419     26.439304
PR15   1152.941278 -15333.064434  20373.685199     80.222358
PR16 -11584.009106 -21703.534375   6820.829522     25.148268
PR17  24313.444093  -4767.831388  -6140.093430     81.959339
PR18  13165.478932  -9745.346341 -19524.016463    139.380274
PR19  -2526.126658 -10276.129544 -23214.669610   -274.668759
PR20 -21938.351918  -4654.885187 -12194.059146   -111.973138
PR21 -24344.485469   4512.263947   6084.504008    -96.402456
PR22 -12353.396554   9982.729144  19987.514678    114.687148
PR24  22413.890769   3719.322187  11617.670150    -53.636019
PR25 -24374.106348   3980.149877   6350.332764    -32.145750
PR26 -11300.228218  22804.340683   1518.181093    -22.580826
EOF
